GLOBALSTAR M057 [-]     
1 25943U 99058A   24099.47149987 -.00000031  00000+0  56236-3 0  9996
2 25943  51.9963 141.8779 0002620 192.4174 167.6611 12.24783613113665
GLOBALSTAR M059 [-]     
1 25944U 99058B   24099.51671053 -.00000120  00000+0 -41927-3 0  9997
2 25944  52.0024 303.0775 0000958 117.1101 256.8607 11.99961071521868
GLOBALSTAR M056 [-]     
1 25945U 99058C   24099.59315265 -.00000061  00000+0  31400-3 0  9994
2 25945  51.9974 315.9928 0001655  53.6441 322.7013 12.04773660110241
GLOBALSTAR M031 [-]     
1 25946U 99058D   24099.60329198 -.00000040  00000+0  51034-3 0  9999
2 25946  51.9951 234.2964 0001490  46.9628  84.3006 12.16006478111679
GLOBALSTAR M039 [-]     
1 25961U 99062A   24099.45931316 -.00000036  00000+0  38070-3 0  9995
2 25961  51.9830 152.7698 0003035 107.4178 252.7020 12.62286717125310
GLOBALSTAR M034 [-]     
1 25962U 99062B   24099.63838472 -.00000094  00000+0 -20241-3 0  9991
2 25962  51.9882  60.9377 0013975 301.8248 229.0707 11.79426213 87112
GLOBALSTAR M029 [-]     
1 25963U 99062C   24099.57965324 -.00000061  00000+0  30637-3 0  9995
2 25963  51.9789 191.3151 0002095 350.7362  23.7541 11.99876003116957
GLOBALSTAR M061 [-]     
1 25964U 99062D   24099.63899705 -.00000053  00000+0  44436-3 0  9995
2 25964  51.9783 239.2163 0005862 221.1430 152.2791 11.76759907 70311
